[{"OBJECT_NAME":"YAOGAN-30 06B","OBJECT_ID":"2019-045B","EPOCH":"2026-03-09T20:57:59.211936","MEAN_MOTION":15.02091105,"ECCENTRICITY":0.00094792,"INCLINATION":34.9914,"RA_OF_ASC_NODE":214.7206,"ARG_OF_PERICENTER":283.6936,"MEAN_ANOMALY":76.2717,"EPHEMERIS_TYPE":0,"CLASSIFICATION_TYPE":"U","NORAD_CAT_ID":44450,"ELEMENT_SET_NO":999,"REV_AT_EPOCH":36171,"BSTAR":0.00031633807,"MEAN_MOTION_DOT":4.217e-5,"MEAN_MOTION_DDOT":0},{"OBJECT_NAME":"STARLINK-4371","OBJECT_ID":"2022-084AV","EPOCH":"2026-03-09T17:16:44.392800","MEAN_MOTION":15.01261397,"ECCENTRICITY":0.00010798,"INCLINATION":97.6057,"RA_OF_ASC_NODE":130.2389,"ARG_OF_PERICENTER":135.5266,"MEAN_ANOMALY":224.6046,"EPHEMERIS_TYPE":0,"CLASSIFICATION_TYPE":"U","NORAD_CAT_ID":53232,"ELEMENT_SET_NO":999,"REV_AT_EPOCH":19932,"BSTAR":8.710399e-5,"MEAN_MOTION_DOT":1.061e-5,"MEAN_MOTION_DDOT":0}]
